ZIP,City,State,County
40003,Bagdad,KY,Shelby
40004,Bardstown,KY,Nelson
40006,Bedford,KY,Trimble
40007,Bethlehem,KY,Henry
40008,Bloomfield,KY,Nelson
40009,Bradfordsville,KY,Marion
40010,Buckner,KY,Oldham
40011,Campbellsburg,KY,Henry
40012,Chaplin,KY,Nelson
40013,CoxsCreek,KY,Nelson
40013,Deatsville,KY,Nelson
40013,Highgrove,KY,Nelson
40013,Lenore,KY,Nelson
40013,Samuels,KY,Nelson
40014,Ballardsville,KY,Oldham
40014,Crestwood,KY,Oldham
40017,Defoe,KY,Henry
40018,Eastwood,KY,Jefferson
40019,Eminence,KY,Henry
40020,Fairfield,KY,Nelson
40022,Finchville,KY,Shelby
40023,Fisherville,KY,Jefferson
40023,Wilsonville,KY,Jefferson
40025,Glenview,KY,Jefferson
40026,Goshen,KY,Oldham
40027,HarrodsCreek,KY,Jefferson
40031,LaGrange,KY,Oldham
40032,KyStateReformatory,KY,Oldham
40032,LaGrange,KY,Oldham
40033,Calvary,KY,Marion
40033,Lebanon,KY,Marion
40036,Lockport,KY,Henry
40037,Loretto,KY,Marion
40040,Mackville,KY,Washington
40041,MasonicHome,KY,Jefferson
40045,Locust,KY,Trimble
40045,Milton,KY,Trimble
40046,MountEden,KY,Spencer
40047,MountWashington,KY,Bullitt
40048,Nazareth,KY,Nelson
40049,Nerinx,KY,Marion
40050,NewCastle,KY,Henry
40051,Howardstown,KY,Nelson
40051,NewHaven,KY,Nelson
40051,Trappist,KY,Nelson
40052,NewHope,KY,Nelson
40055,Pendleton,KY,Henry
40056,PeweeValley,KY,Oldham
40057,Cropper,KY,Henry
40057,Franklinton,KY,Henry
40057,Pleasureville,KY,Henry
40058,PortRoyal,KY,Henry
40059,Prospect,KY,Jefferson
40060,Raywick,KY,Marion
40061,SaintCatharine,KY,Washington
40061,StCatharine,KY,Washington
40062,SaintFrancis,KY,Marion
40062,StFrancis,KY,Marion
40062,StMary,KY,Marion
40063,SaintMary,KY,Marion
40065,Shelbyville,KY,Shelby
40066,Shelbyville,KY,Shelby
40067,Simpsonville,KY,Shelby
40068,Smithfield,KY,Henry
40069,Maud,KY,Washington
40069,Springfield,KY,Washington
40070,Sulphur,KY,Henry
40071,Taylorsville,KY,Spencer
40075,TurnersSta,KY,Henry
40075,TurnersStation,KY,Henry
40076,Waddy,KY,Shelby
40077,Westport,KY,Oldham
40078,Willisburg,KY,Washington
40104,Battletown,KY,Meade
40104,WolfCreek,KY,Meade
40106,BigSpring,KY,Breckinridge
40106,Highplains,KY,Breckinridge
40107,Boston,KY,Nelson
40108,Brandenburg,KY,Meade
40109,Brooks,KY,Bullitt
40110,Clermont,KY,Bullitt
40111,Cloverport,KY,Breckinridge
40114,Constantine,KY,Breckinridge
40115,Custer,KY,Breckinridge
40115,Dyer,KY,Breckinridge
40117,Ekron,KY,Meade
40118,Fairdale,KY,Jefferson
40119,FallsOfRough,KY,Grayson
40119,FallsRough,KY,Grayson
40119,GlenDean,KY,Grayson
40119,Vanzant,KY,Grayson
40121,FortKnox,KY,Hardin
40140,Garfield,KY,Breckinridge
40142,Guston,KY,Meade
40143,Addison,KY,Breckinridge
40143,Axtel,KY,Breckinridge
40143,Hardinsburg,KY,Breckinridge
40143,Mooleyville,KY,Breckinridge
40143,Sample,KY,Breckinridge
40144,Harned,KY,Breckinridge
40144,LocustHill,KY,Breckinridge
40145,Hudson,KY,Breckinridge
40146,Irvington,KY,Breckinridge
40146,Lodiburg,KY,Breckinridge
40150,Belmont,KY,Bullitt
40150,Colesburg,KY,Bullitt
40150,LebanonJct,KY,Bullitt
40150,LebanonJunction,KY,Bullitt
40152,McDaniels,KY,Breckinridge
40152,Mcdaniels,KY,Breckinridge
40153,McQuady,KY,Breckinridge
40153,Mcquady,KY,Breckinridge
40155,Muldraugh,KY,Meade
40157,Payneville,KY,Meade
40159,Radcliff,KY,Hardin
40160,Radcliff,KY,Hardin
40161,Rhodelia,KY,Meade
40162,Rineyville,KY,Hardin
40164,SeRee,KY,Breckinridge
40165,BardstownJunction,KY,Bullitt
40165,PioneerVillage,KY,Bullitt
40165,Shepherdsville,KY,Bullitt
40165,Zoneton,KY,Bullitt
40170,Stephensport,KY,Breckinridge
40171,UnionStar,KY,Breckinridge
40175,Flaherty,KY,Hardin
40175,VineGrove,KY,Hardin
40176,Webster,KY,Breckinridge
40177,WestPoint,KY,Hardin
40178,Westview,KY,Breckinridge
40200,Louisville,KY,Jefferson
40201,Louisville,KY,Jefferson
40202,Louisville,KY,Jefferson
40203,Louisville,KY,Jefferson
40204,Louisville,KY,Jefferson
40205,Louisville,KY,Jefferson
40206,Louisville,KY,Jefferson
40206,SaintMatthews,KY,Jefferson
40207,Louisville,KY,Jefferson
40207,SaintMatthews,KY,Jefferson
40207,StMatthews,KY,Jefferson
40208,Louisville,KY,Jefferson
40209,Louisville,KY,Jefferson
40210,Louisville,KY,Jefferson
40211,Louisville,KY,Jefferson
40212,Louisville,KY,Jefferson
40213,Louisville,KY,Jefferson
40214,Louisville,KY,Jefferson
40215,Louisville,KY,Jefferson
40216,Louisville,KY,Jefferson
40216,Shively,KY,Jefferson
40217,Louisville,KY,Jefferson
40218,Buechel,KY,Jefferson
40218,Louisville,KY,Jefferson
40218,WestBuechel,KY,Jefferson
40219,Louisville,KY,Jefferson
40219,Okolona,KY,Jefferson
40220,Louisville,KY,Jefferson
40221,Louisville,KY,Jefferson
40221,StandifordField,KY,Jefferson
40222,Louisville,KY,Jefferson
40222,Lyndon,KY,Jefferson
40223,Anchorage,KY,Jefferson
40223,Louisville,KY,Jefferson
40224,Louisville,KY,Jefferson
40225,GeneralElectricCo,KY,Jefferson
40225,Louisville,KY,Jefferson
40228,Buechel,KY,Jefferson
40228,Highview,KY,Jefferson
40228,Louisville,KY,Jefferson
40229,Louisville,KY,Jefferson
40229,Okolona,KY,Jefferson
40231,Louisville,KY,Jefferson
40232,Louisville,KY,Jefferson
40233,Louisville,KY,Jefferson
40241,Louisville,KY,Jefferson
40241,Lyndon,KY,Jefferson
40242,Louisville,KY,Jefferson
40242,Lyndon,KY,Jefferson
40243,Louisville,KY,Jefferson
40243,Middletown,KY,Jefferson
40245,Louisville,KY,Jefferson
40250,Louisville,KY,Jefferson
40251,Louisville,KY,Jefferson
40252,Louisville,KY,Jefferson
40253,Louisville,KY,Jefferson
40255,Louisville,KY,Jefferson
40256,Louisville,KY,Jefferson
40257,Louisville,KY,Jefferson
40257,SaintMatthews,KY,Jefferson
40258,Louisville,KY,Jefferson
40258,PleasureRidgePark,KY,Jefferson
40259,Louisville,KY,Jefferson
40261,Louisville,KY,Jefferson
40266,KentuckyLotteryCorporation,KY,Jefferson
40266,Louisville,KY,Jefferson
40268,Louisville,KY,Jefferson
40268,PleasureRidgePark,KY,Jefferson
40269,Jeffersontown,KY,Jefferson
40269,Louisville,KY,Jefferson
40270,Louisville,KY,Jefferson
40272,Kosmosdale,KY,Jefferson
40272,Louisville,KY,Jefferson
40272,ValleyStation,KY,Jefferson
40280,Louisville,KY,Jefferson
40280,SoBaptistTheoSem,KY,Jefferson
40285,Louisville,KY,Jefferson
40287,KentuckyLotteryCororation,KY,Jefferson
40287,Louisville,KY,Jefferson
40289,Louisville,KY,Jefferson
40289,NationalCityBank,KY,Jefferson
40291,FernCreek,KY,Jefferson
40291,Louisville,KY,Jefferson
40292,Louisville,KY,Jefferson
40292,UnivOfLouisville,KY,Jefferson
40293,LibertyNatlBankAccts,KY,Jefferson
40293,Louisville,KY,Jefferson
40294,LibertyNatlBank,KY,Jefferson
40294,Louisville,KY,Jefferson
40295,LibertyNationalBank,KY,Jefferson
40295,Louisville,KY,Jefferson
40296,Louisville,KY,Jefferson
40296,PncBank,KY,Jefferson
40297,Louisville,KY,Jefferson
40297,PncBank,KY,Jefferson
40298,Louisville,KY,Jefferson
40299,JTown,KY,Jefferson
40299,Jeffersontown,KY,Jefferson
40299,Louisville,KY,Jefferson
40309,Bowen,KY,Powell
40310,Burgin,KY,Mercer
40311,Carlisle,KY,Nicholas
40312,ClayCity,KY,Powell
40312,Westbend,KY,Powell
40313,Clearfield,KY,Rowan
40316,Denniston,KY,Menifee
40317,Elliottville,KY,Rowan
40319,Farmers,KY,Rowan
40320,Ford,KY,Clark
40322,Frenchburg,KY,Menifee
40322,Scranton,KY,Menifee
40324,Georgetown,KY,Scott
40328,GravelSwitch,KY,Marion
40329,Haldeman,KY,Rowan
40330,Cornishville,KY,Mercer
40330,Harrodsburg,KY,Mercer
40330,Pleasanthill,KY,Mercer
40330,Shakertown,KY,Mercer
40334,Hope,KY,Montgomery
40336,Irvine,KY,Estill
40336,Jinks,KY,Estill
40336,Pryse,KY,Estill
40336,WestIrvine,KY,Estill
40337,Jeffersonville,KY,Montgomery
40339,Keene,KY,Jessamine
40340,Nicholasville,KY,Jessamine
40341,Lamero,KY,Rockcastle
40342,Lawrenceburg,KY,Anderson
40345,Mariba,KY,Menifee
40346,Means,KY,Menifee
40347,Midway,KY,Woodford
40348,Millersburg,KY,Bourbon
40350,Moorefield,KY,Nicholas
40351,Morehead,KY,Rowan
40353,MountSterling,KY,Montgomery
40355,NewLiberty,KY,Owen
40356,Nicholasville,KY,Jessamine
40357,NorthMiddletown,KY,Bourbon
40358,Olympia,KY,Bath
40359,Gratz,KY,Owen
40359,Monterey,KY,Owen
40359,Owenton,KY,Owen
40359,Wheatley,KY,Owen
40360,Owingsville,KY,Bath
40361,Clintonville,KY,Bourbon
40361,Paris,KY,Bourbon
40362,Paris,KY,Bourbon
40363,PerryPark,KY,Owen
40365,Pomeroyton,KY,Menifee
40366,Preston,KY,Bath
40370,Sadieville,KY,Scott
40371,SaltLick,KY,Bath
40371,Sudith,KY,Bath
40372,Bondville,KY,Mercer
40372,Salvisa,KY,Mercer
40374,Bethel,KY,Bath
40374,Sharpsburg,KY,Bath
40376,NaturalBridge,KY,Powell
40376,Slade,KY,Powell
40379,Minorsville,KY,Scott
40379,StampingGround,KY,Scott
40380,Patsey,KY,Powell
40380,Rosslyn,KY,Powell
40380,Stanton,KY,Powell
40383,Versailles,KY,Woodford
40384,RandMcnallyInc,KY,Woodford
40384,Versailles,KY,Woodford
40385,Bybee,KY,Madison
40385,CollegeHill,KY,Madison
40385,Waco,KY,Madison
40386,CrolierBooks,KY,Woodford
40386,Versailles,KY,Woodford
40387,Korea,KY,Menifee
40387,Wellington,KY,Menifee
40390,HighBridge,KY,Jessamine
40390,Wilmore,KY,Jessamine
40391,Ford,KY,Clark
40391,Winchester,KY,Clark
40392,Winchester,KY,Clark
40402,Annville,KY,Jackson
40402,Bond,KY,Jackson
40402,MooresCreek,KY,Jackson
40403,Berea,KY,Madison
40404,Berea,KY,Madison
40404,BereaCollege,KY,Madison
40405,Bighill,KY,Madison
40409,Brodhead,KY,Rockcastle
40410,Bryantsville,KY,Garrard
40415,Cobhill,KY,Estill
40419,CrabOrchard,KY,Lincoln
40420,Crystal,KY,Estill
40421,Dabolt,KY,Jackson
40422,Danville,KY,Boyle
40423,Danville,KY,Boyle
40426,Dreyfus,KY,Madison
40430,Egypt,KY,Jackson
40434,GrayHawk,KY,Jackson
40435,Herd,KY,Jackson
40437,Hustonville,KY,Lincoln
40440,JunctionCity,KY,Boyle
40441,KerbyKnob,KY,Jackson
40442,KingsMountain,KY,Lincoln
40444,Lancaster,KY,Garrard
40445,Livingston,KY,Rockcastle
40446,ChristianAppalachian,KY,Garrard
40446,Lancaster,KY,Garrard
40447,CloverBottom,KY,Jackson
40447,Eberle,KY,Jackson
40447,Foxtown,KY,Jackson
40447,Hisle,KY,Jackson
40447,McKee,KY,Jackson
40447,Morrill,KY,Jackson
40447,NewZion,KY,Jackson
40447,Parrot,KY,Jackson
40448,McKinney,KY,Lincoln
40452,Mitchellsburg,KY,Boyle
40456,Climax,KY,Rockcastle
40456,Conway,KY,Rockcastle
40456,Disputanta,KY,Rockcastle
40456,MountVernon,KY,Rockcastle
40460,Johnetta,KY,Rockcastle
40460,Livingston,KY,Rockcastle
40460,Orlando,KY,Rockcastle
40461,PaintLick,KY,Garrard
40464,Parksville,KY,Boyle
40467,Peoples,KY,Jackson
40468,Perryville,KY,Boyle
40472,Irvine,KY,Estill
40472,Ravenna,KY,Estill
40473,RenfroValley,KY,Rockcastle
40475,Richmond,KY,Madison
40476,Richmond,KY,Madison
40481,Sandgap,KY,Jackson
40484,Stanford,KY,Lincoln
40486,Elias,KY,Jackson
40486,Maulden,KY,Jackson
40486,Tyner,KY,Jackson
40488,Waneta,KY,Jackson
40489,Waynesburg,KY,Lincoln
40492,Wildie,KY,Rockcastle
40494,WindCave,KY,Jackson
40495,Winston,KY,Estill
40500,Lexington,KY,Fayette
40501,Lexington,KY,Fayette
40502,Lexington,KY,Fayette
40503,Lexington,KY,Fayette
40504,Lexington,KY,Fayette
40505,Lexington,KY,Fayette
40506,Lexington,KY,Fayette
40506,UniversityOfKy,KY,Fayette
40507,Lexington,KY,Fayette
40508,Lexington,KY,Fayette
40509,Lexington,KY,Fayette
40510,Lexington,KY,Fayette
40511,Lexington,KY,Fayette
40512,Lexington,KY,Fayette
40513,Lexington,KY,Fayette
40514,Lexington,KY,Fayette
40515,Lexington,KY,Fayette
40516,Lexington,KY,Fayette
40517,Lexington,KY,Fayette
40522,Lexington,KY,Fayette
40523,Lexington,KY,Fayette
40524,Lexington,KY,Fayette
40526,Lexington,KY,Fayette
40526,UniversityOfKyResHalls,KY,Fayette
40533,Lexington,KY,Fayette
40536,Lexington,KY,Fayette
40536,UniversityOfKyMedCtr,KY,Fayette
40544,Lexington,KY,Fayette
40546,Lexington,KY,Fayette
40546,UniversityOfKyAgriDept,KY,Fayette
40555,Lexington,KY,Fayette
40574,Lexington,KY,Fayette
40575,Lexington,KY,Fayette
40576,Lexington,KY,Fayette
40577,Lexington,KY,Fayette
40578,Lexington,KY,Fayette
40579,Lexington,KY,Fayette
40580,Lexington,KY,Fayette
40581,Lexington,KY,Fayette
40582,Lexington,KY,Fayette
40583,Lexington,KY,Fayette
40584,Lexington,KY,Fayette
40585,Lexington,KY,Fayette
40586,Lexington,KY,Fayette
40587,Lexington,KY,Fayette
40588,Lexington,KY,Fayette
40589,Lexington,KY,Fayette
40590,Lexington,KY,Fayette
40591,Lexington,KY,Fayette
40592,Lexington,KY,Fayette
40593,Lexington,KY,Fayette
40594,Lexington,KY,Fayette
40595,Lexington,KY,Fayette
40596,Lexington,KY,Fayette
40601,Frankfort,KY,Franklin
40601,Hatton,KY,Franklin
40602,Frankfort,KY,Franklin
40603,Frankfort,KY,Franklin
40604,Frankfort,KY,Franklin
40618,Frankfort,KY,Franklin
40618,KyDeptOfRevenue,KY,Franklin
40619,DivisionOfSalesUseTax,KY,Franklin
40619,Frankfort,KY,Franklin
40620,Frankfort,KY,Franklin
40620,KyDeptOfRevenue,KY,Franklin
40621,Frankfort,KY,Franklin
40621,KyDeptHumanResources,KY,Franklin
40622,Frankfort,KY,Franklin
40622,KyDeptOfTransportation,KY,Franklin
40701,BarkCamp,KY,Whitley
40701,Corbin,KY,Whitley
40701,Walden,KY,Whitley
40702,Corbin,KY,Whitley
40724,Bush,KY,Laurel
40729,EastBernstadt,KY,Laurel
40729,HazelPatch,KY,Laurel
40729,Symbol,KY,Laurel
40729,Victory,KY,Laurel
40730,Emlyn,KY,Whitley
40734,Gray,KY,Knox
40737,Keavy,KY,Laurel
40740,Lily,KY,Laurel
40741,London,KY,Laurel
40741,Sasser,KY,Laurel
40742,London,KY,Laurel
40743,London,KY,Laurel
40745,London,KY,Laurel
40751,Marydell,KY,Laurel
40754,Nevisdale,KY,Whitley
40755,Pittsburg,KY,Laurel
40759,MeadowCreek,KY,Whitley
40759,Rockholds,KY,Whitley
40763,Siler,KY,Whitley
40769,CumberlandCollege,KY,Whitley
40769,PleasantView,KY,Whitley
40769,Williamsburg,KY,Whitley
40771,Woodbine,KY,Knox
40801,Ages,KY,Harlan
40801,AgesBrookside,KY,Harlan
40801,Brookside,KY,Harlan
40803,Asher,KY,Leslie
40806,Baxter,KY,Harlan
40806,Keith,KY,Harlan
40807,Benham,KY,Harlan
40808,BigLaurel,KY,Harlan
40810,Bledsoe,KY,Harlan
40810,LewisCreek,KY,Harlan
40810,PineMountain,KY,Harlan
40813,Calvin,KY,Bell
40815,Cawood,KY,Harlan
40815,Crummies,KY,Harlan
40815,ThreePoint,KY,Harlan
40816,Chappell,KY,Leslie
40818,Coalgood,KY,Harlan
40819,Coldiron,KY,Harlan
40819,Molus,KY,Harlan
40820,Cranks,KY,Harlan
40823,Chad,KY,Harlan
40823,Cumberland,KY,Harlan
40823,Hiram,KY,Harlan
40824,Dayhoit,KY,Harlan
40825,Dizney,KY,Harlan
40826,Eolia,KY,Letcher
40827,Essie,KY,Leslie
40828,BaileyCreek,KY,Harlan
40828,Evarts,KY,Harlan
40828,Louellen,KY,Harlan
40828,Redbud,KY,Harlan
40828,Woods,KY,Harlan
40828,YocumCreek,KY,Harlan
40829,GraysKnob,KY,Harlan
40830,Gulston,KY,Harlan
40831,Blackjoe,KY,Harlan
40831,Chevrolet,KY,Harlan
40831,Clovertown,KY,Harlan
40831,Coxton,KY,Harlan
40831,Elcomb,KY,Harlan
40831,GoldenAsh,KY,Harlan
40831,Harlan,KY,Harlan
40831,HarlanGas,KY,Harlan
40831,Kitts,KY,Harlan
40831,Liggett,KY,Harlan
40831,Saylor,KY,Harlan
40831,SprucePine,KY,Harlan
40831,Stanfill,KY,Harlan
40831,Sunshine,KY,Harlan
40831,Teetersville,KY,Harlan
40831,Tway,KY,Harlan
40831,Yancey,KY,Harlan
40840,Harlan,KY,Leslie
40840,Helton,KY,Leslie
40843,HolmesMill,KY,Harlan
40844,Hoskinston,KY,Leslie
40845,Cardinal,KY,Bell
40845,Hulen,KY,Bell
40847,Kenvir,KY,Harlan
40849,Lejunior,KY,Harlan
40854,Loyall,KY,Harlan
40855,Lynch,KY,Harlan
40856,Cubage,KY,Bell
40856,Miracle,KY,Bell
40858,Mozelle,KY,Leslie
40861,OvenFork,KY,Letcher
40862,Partridge,KY,Letcher
40863,Alva,KY,Harlan
40863,Pathfork,KY,Harlan
40865,Putney,KY,Harlan
40867,Smith,KY,Harlan
40868,Stinnett,KY,Leslie
40870,Totz,KY,Harlan
40873,Wallins,KY,Harlan
40873,WallinsCreek,KY,Harlan
40874,Warbranch,KY,Leslie
40902,Arjay,KY,Bell
40903,Artemus,KY,Knox
40906,BaileySwitch,KY,Knox
40906,Barbourville,KY,Knox
40906,BooneHeights,KY,Knox
40906,Carpenter,KY,Knox
40906,CraneNest,KY,Knox
40906,Gausdale,KY,Knox
40906,Himyar,KY,Knox
40906,Jarvis,KY,Knox
40906,Kayjay,KY,Knox
40906,Sprule,KY,Knox
40906,SwanLake,KY,Knox
40906,Swanpond,KY,Knox
40906,Tedders,KY,Knox
40906,Warren,KY,Knox
40911,Barbourville,KY,Knox
40911,Baughman,KY,Knox
40913,Beverly,KY,Bell
40913,RedBird,KY,Bell
40914,BigCreek,KY,Clay
40914,Peabody,KY,Clay
40915,Bimble,KY,Knox
40921,BryantsStore,KY,Knox
40923,Cannon,KY,Knox
40927,Closplint,KY,Harlan
40930,Dewitt,KY,Knox
40931,Eriline,KY,Clay
40931,JacksCreek,KY,Clay
40932,FallRock,KY,Clay
40935,FlatLick,KY,Knox
40935,Hammond,KY,Knox
40935,SaltGum,KY,Knox
40936,Fogertown,KY,Clay
40939,Elys,KY,Knox
40939,Fourmile,KY,Knox
40939,IvyGrove,KY,Knox
40940,Fonde,KY,Bell
40940,Frakes,KY,Bell
40940,LaurelFork,KY,Bell
40941,Garrard,KY,Clay
40943,Girdler,KY,Knox
40944,GooseRock,KY,Clay
40946,GreenRoad,KY,Knox
40949,Heidrick,KY,Knox
40951,Hima,KY,Clay
40953,Hinkle,KY,Knox
40955,Ark,KY,Bell
40955,Ingram,KY,Bell
40958,KettleIsland,KY,Bell
40962,Bluehole,KY,Clay
40962,BrightShade,KY,Clay
40962,Grace,KY,Clay
40962,Hector,KY,Clay
40962,Manchester,KY,Clay
40962,Marcum,KY,Clay
40962,Ogle,KY,Clay
40962,Tanksley,KY,Clay
40962,Urban,KY,Clay
40962,Wildcat,KY,Clay
40964,MaryAlice,KY,Harlan
40965,Middlesboro,KY,Bell
40965,Middlesborough,KY,Bell
40970,Mills,KY,Knox
40972,Brutus,KY,Clay
40972,Oneida,KY,Clay
40972,Teges,KY,Clay
40977,Balkan,KY,Bell
40977,Callaway,KY,Bell
40977,Cary,KY,Bell
40977,Chenoa,KY,Bell
40977,ClearCreek,KY,Bell
40977,ClearCreekSprings,KY,Bell
40977,Davisburg,KY,Bell
40977,DortonBranch,KY,Bell
40977,EastPineville,KY,Bell
40977,Field,KY,Bell
40977,Hosman,KY,Bell
40977,Jenson,KY,Bell
40977,LogMountain,KY,Bell
40977,Pineville,KY,Bell
40977,StraightCreek,KY,Bell
40977,Tinsley,KY,Bell
40977,Wallsend,KY,Bell
40978,Plank,KY,Clay
40979,Roark,KY,Leslie
40981,Saul,KY,Perry
40982,Scalf,KY,Knox
40983,SextonsCreek,KY,Clay
40988,StoneyFork,KY,Bell
40995,Trosper,KY,Knox
40997,Walker,KY,Knox
40999,Woollum,KY,Knox
41001,Alexandria,KY,Campbell
41001,Claryville,KY,Campbell
41001,GrantsLick,KY,Campbell
41002,Augusta,KY,Bracken
41002,Chatham,KY,Bracken
41002,Sharon,KY,Bracken
41003,Berry,KY,Harrison
41004,Bladeston,KY,Bracken
41004,Brooksville,KY,Bracken
41004,Cumminsville,KY,Bracken
41004,Gertrude,KY,Bracken
41004,Petra,KY,Bracken
41004,Powersville,KY,Bracken
41004,Stonewall,KY,Bracken
41004,Willow,KY,Bracken
41004,Woolcott,KY,Bracken
41005,Belleview,KY,Boone
41005,Bullittsville,KY,Boone
41005,Burlington,KY,Boone
41005,CampErnest,KY,Boone
41005,Idlewild,KY,Boone
41005,Limaburg,KY,Boone
41005,Mcville,KY,Boone
41005,RabbitHash,KY,Boone
41006,Butler,KY,Pendleton
41006,Carntown,KY,Pendleton
41006,MountAuburn,KY,Pendleton
41006,Peachgrove,KY,Pendleton
41006,PleasantHill,KY,Pendleton
41007,California,KY,Campbell
41007,Carthage,KY,Campbell
41007,FlaggSpring,KY,Campbell
41007,GubserMill,KY,Campbell
41007,Mentor,KY,Campbell
41008,Carrollton,KY,Carroll
41008,English,KY,Carroll
41008,Prestonville,KY,Carroll
41009,Constance,KY,Boone
41010,Blanchet,KY,Grant
41010,Corinth,KY,Grant
41011,Cov,KY,Kenton
41011,Covington,KY,Kenton
41011,Decoursey,KY,Kenton
41011,FortWright,KY,Kenton
41011,KentonHills,KY,Kenton
41011,LookoutHeights,KY,Kenton
41011,ParkHills,KY,Kenton
41012,Covington,KY,Kenton
41014,Covington,KY,Kenton
41014,Rouse,KY,Kenton
41015,Covington,KY,Kenton
41015,Kentonvale,KY,Kenton
41015,Latonia,KY,Kenton
41015,LatoniaLakes,KY,Kenton
41015,Rosedale,KY,Kenton
41015,Ryland,KY,Kenton
41015,RylandHeights,KY,Kenton
41015,TaylorMill,KY,Kenton
41016,Bromley,KY,Kenton
41016,Covington,KY,Kenton
41016,Ludlow,KY,Kenton
41017,Covington,KY,Kenton
41017,CrescentPark,KY,Kenton
41017,CrescentSprings,KY,Kenton
41017,CrestviewHills,KY,Kenton
41017,Dixie,KY,Kenton
41017,Edgewood,KY,Kenton
41017,FortMitchell,KY,Kenton
41017,LakesidePark,KY,Kenton
41017,SoFortMitchell,KY,Kenton
41017,VillaHills,KY,Kenton
41018,Covington,KY,Kenton
41018,Elsmere,KY,Kenton
41018,Erlanger,KY,Kenton
41019,Covington,KY,Kenton
41019,InternalRevenue,KY,Kenton
41022,Florence,KY,Boone
41030,Bracht,KY,Grant
41030,Crittenden,KY,Grant
41030,Flingsville,KY,Grant
41031,Breckinridge,KY,Harrison
41031,Broadwell,KY,Harrison
41031,BuenaVista,KY,Harrison
41031,Colville,KY,Harrison
41031,Connersville,KY,Harrison
41031,Cynthiana,KY,Harrison
41031,Hooktown,KY,Harrison
41031,Lair,KY,Harrison
41031,LeesLick,KY,Harrison
41031,Leesburg,KY,Harrison
41031,Morningglory,KY,Harrison
41031,Oddville,KY,Harrison
41031,Poindexter,KY,Harrison
41031,RuddelsMills,KY,Harrison
41031,Rutland,KY,Harrison
41031,Shadynook,KY,Harrison
41031,Shawhan,KY,Harrison
41031,Sunrise,KY,Harrison
41033,DeMossville,KY,Pendleton
41033,Demossville,KY,Pendleton
41033,Fiskburg,KY,Pendleton
41033,Gardnersville,KY,Pendleton
41033,Portland,KY,Pendleton
41034,Dover,KY,Mason
41035,DryRidge,KY,Grant
41035,Sherman,KY,Grant
41037,Elizaville,KY,Fleming
41039,BattleRun,KY,Fleming
41039,Cowan,KY,Fleming
41039,Ewing,KY,Fleming
41039,Nepton,KY,Fleming
41040,BrowningsCorner,KY,Pendleton
41040,Falmouth,KY,Pendleton
41040,FourOaks,KY,Pendleton
41040,Goforth,KY,Pendleton
41040,Lenoxburg,KY,Pendleton
41040,LocustGrove,KY,Pendleton
41040,Mckinneysburg,KY,Pendleton
41040,Morgan,KY,Pendleton
41040,Neave,KY,Pendleton
41040,Pendleton,KY,Pendleton
41041,BaldHill,KY,Fleming
41041,BlueBank,KY,Fleming
41041,Craintown,KY,Fleming
41041,Dalesburg,KY,Fleming
41041,Flemingsburg,KY,Fleming
41041,FlemingsburgJunction,KY,Fleming
41041,MarthaMills,KY,Fleming
41041,MountCarmel,KY,Fleming
41041,Pecksridge,KY,Fleming
41041,PoplarPlains,KY,Fleming
41041,Sherburne,KY,Fleming
41041,Sutton,KY,Fleming
41041,Tilton,KY,Fleming
41042,Devon,KY,Boone
41042,Florence,KY,Boone
41042,HopefulHeights,KY,Boone
41043,Berlin,KY,Bracken
41043,Bradford,KY,Bracken
41043,Foster,KY,Bracken
41043,Johnsville,KY,Bracken
41043,Wellsburg,KY,Bracken
41043,WillowGrove,KY,Bracken
41044,Abegall,KY,Bracken
41044,Germantown,KY,Bracken
41045,Carrollton,KY,Carroll
41045,Ghent,KY,Carroll
41046,Glencoe,KY,Gallatin
41048,Francisville,KY,Boone
41048,Hebron,KY,Boone
41048,Stringtown,KY,Boone
41048,Taylorsport,KY,Boone
41049,Colfax,KY,Fleming
41049,GrangeCity,KY,Fleming
41049,Hillsboro,KY,Fleming
41049,RingosMills,KY,Fleming
41049,Sharkey,KY,Fleming
41051,Independence,KY,Kenton
41051,Nicholson,KY,Kenton
41051,WhiteTower,KY,Kenton
41052,Jonesville,KY,Grant
41053,Kenton,KY,Kenton
41054,Mason,KY,Grant
41055,Helena,KY,Mason
41055,Mayslick,KY,Mason
41055,Needmore,KY,Mason
41055,Shannon,KY,Mason
41055,Wedonia,KY,Mason
41056,CountryClubHeights,KY,Mason
41056,Lewisburg,KY,Mason
41056,LimestoneSq,KY,Mason
41056,Maysville,KY,Mason
41056,Moranburg,KY,Mason
41056,Murphysville,KY,Mason
41056,Orangeburg,KY,Mason
41056,Plumville,KY,Mason
41056,Rectorville,KY,Mason
41056,Sardis,KY,Mason
41056,Springdale,KY,Mason
41059,Campsprings,KY,Campbell
41059,Melbourne,KY,Campbell
41059,Ross,KY,Campbell
41061,Milford,KY,Bracken
41062,Minerva,KY,Mason
41063,Atwood,KY,Kenton
41063,MorningView,KY,Kenton
41063,Piner,KY,Kenton
41063,Visalia,KY,Kenton
41064,Kentontown,KY,Robertson
41064,MountOlivet,KY,Robertson
41064,Piqua,KY,Robertson
41065,MusesMills,KY,Fleming
41071,Newport,KY,Campbell
41071,SNewport,KY,Campbell
41071,SoNewport,KY,Campbell
41071,SouthNewport,KY,Campbell
41071,Southgate,KY,Campbell
41071,Spence,KY,Campbell
41071,SpenceSta,KY,Campbell
41071,SpenceStation,KY,Campbell
41071,Wilder,KY,Campbell
41071,Woodlawn,KY,Campbell
41072,Newport,KY,Campbell
41073,Bellevue,KY,Campbell
41073,Newport,KY,Campbell
41074,Dayton,KY,Campbell
41074,Newport,KY,Campbell
41075,FortThomas,KY,Campbell
41075,Newport,KY,Campbell
41076,ColdSprgsHighlandHts,KY,Campbell
41076,ColdSpring,KY,Campbell
41076,ColdSpringHighlandHeights,KY,Campbell
41076,Crestview,KY,Campbell
41076,HighlandHeights,KY,Campbell
41076,Newport,KY,Campbell
41080,Petersburg,KY,Boone
41081,PlummersLanding,KY,Fleming
41081,PlummersLndg,KY,Fleming
41081,PlummersMill,KY,Fleming
41083,EagleStation,KY,Carroll
41083,Sanders,KY,Carroll
41085,SilverGrove,KY,Campbell
41086,Sparta,KY,Gallatin
41091,Hamilton,KY,Boone
41091,Union,KY,Boone
41092,Verona,KY,Boone
41093,Beechburg,KY,Fleming
41093,Foxport,KY,Fleming
41093,Goddard,KY,Fleming
41093,Wallingford,KY,Fleming
41094,Beaverlick,KY,Boone
41094,Richwood,KY,Boone
41094,Walton,KY,Boone
41095,Warsaw,KY,Gallatin
41096,Washington,KY,Mason
41097,Delia,KY,Grant
41097,Heekin,KY,Grant
41097,Hilltop,KY,Grant
41097,Holbrook,KY,Grant
41097,Lawrenceville,KY,Grant
41097,Stewartsville,KY,Grant
41097,Williamstown,KY,Grant
41098,Worthville,KY,Carroll
41099,Newport,KY,Campbell
41099,NorthernKentuckyUniversity,KY,Campbell
41101,Ashland,KY,Boyd
41101,Bellefonte,KY,Boyd
41101,Ironville,KY,Boyd
41101,Meads,KY,Boyd
41101,Millseat,KY,Boyd
41101,Naples,KY,Boyd
41101,Princess,KY,Boyd
41101,Rockdale,KY,Boyd
41101,WestFairview,KY,Boyd
41102,Ashland,KY,Boyd
41105,Ashland,KY,Boyd
41105,Naples,KY,Boyd
41114,Ashland,KY,Boyd
41114,AshlandOilInc,KY,Boyd
41121,Argillite,KY,Greenup
41124,Blaine,KY,Lawrence
41124,Cordell,KY,Lawrence
41124,Wilbur,KY,Lawrence
41125,Bruin,KY,Elliott
41127,CampDix,KY,Lewis
41128,Carter,KY,Carter
41128,SmithsCreek,KY,Carter
41129,Catlettsburg,KY,Boyd
41131,Concord,KY,Lewis
41132,Denton,KY,Carter
41135,Emerson,KY,Lewis
41135,HeadOfGrassy,KY,Lewis
41137,Firebrick,KY,Lewis
41139,Flatwoods,KY,Greenup
41141,Garrison,KY,Lewis
41142,Grahn,KY,Carter
41143,Fultz,KY,Carter
41143,Grayson,KY,Carter
41143,Jeriel,KY,Carter
41143,JohnsRun,KY,Carter
41144,Greenup,KY,Greenup
41144,Load,KY,Greenup
41144,Wurtland,KY,Greenup
41146,FairviewHill,KY,Carter
41146,Hitchins,KY,Carter
41149,Isonville,KY,Elliott
41150,Jacobs,KY,Carter
41150,OliveHill,KY,Carter
41156,Lloyd,KY,Greenup
41159,Martha,KY,Lawrence
41160,Mazie,KY,Lawrence
41163,Oldtown,KY,Greenup
41164,Ault,KY,Carter
41164,Brinegar,KY,Carter
41164,ClarkHill,KY,Carter
41164,CountsCrossRoads,KY,Carter
41164,Enterprise,KY,Carter
41164,Fitch,KY,Carter
41164,GarvinRidge,KY,Carter
41164,Gimlet,KY,Carter
41164,Globe,KY,Carter
41164,Ibex,KY,Carter
41164,Lawton,KY,Carter
41164,Limestone,KY,Carter
41164,OliveHill,KY,Carter
41164,Prater,KY,Carter
41164,SmokyValley,KY,Carter
41164,Stark,KY,Carter
41164,UpperTygart,KY,Carter
41164,Wolf,KY,Carter
41166,Quincy,KY,Lewis
41168,Coalton,KY,Boyd
41168,Kilgore,KY,Boyd
41168,Rush,KY,Boyd
41169,Russell,KY,Greenup
41170,SaintPaul,KY,Lewis
41170,StPaul,KY,Lewis
41171,Burke,KY,Elliott
41171,LittleSandy,KY,Elliott
41171,Lytten,KY,Elliott
41171,Newfoundland,KY,Elliott
41171,SandyHook,KY,Elliott
41173,Soldier,KY,Carter
41174,SouthPortsmouth,KY,Greenup
41175,Beechy,KY,Greenup
41175,Fullerton,KY,Greenup
41175,Limeville,KY,Greenup
41175,LowerKingsAddition,KY,Greenup
41175,Maloneton,KY,Greenup
41175,Siloam,KY,Greenup
41175,SouthShore,KY,Greenup
41175,UpperKingsAddition,KY,Greenup
41175,York,KY,Greenup
41177,Stephens,KY,Elliott
41179,Carrs,KY,Lewis
41179,Charters,KY,Lewis
41179,Clarksburg,KY,Lewis
41179,Fearisville,KY,Lewis
41179,GlenSprings,KY,Lewis
41179,Heselton,KY,Lewis
41179,Kinniconick,KY,Lewis
41179,Petersville,KY,Lewis
41179,Trace,KY,Lewis
41179,Trinity,KY,Lewis
41179,Vanceburg,KY,Lewis
41180,Cherokee,KY,Lawrence
41180,Webbville,KY,Lawrence
41181,Willard,KY,Carter
41183,Worthington,KY,Greenup
41189,Burtonville,KY,Lewis
41189,Epworth,KY,Lewis
41189,PoplarFlat,KY,Lewis
41189,Ribolt,KY,Lewis
41189,Tollesboro,KY,Lewis
41201,Adams,KY,Lawrence
41201,Louisa,KY,Lawrence
41203,Beauty,KY,Martin
41204,BoonsCamp,KY,Johnson
41211,Culver,KY,Elliott
41211,Halcom,KY,Elliott
41211,Sarah,KY,Elliott
41214,Davella,KY,Martin
41214,Debord,KY,Martin
41215,Denver,KY,Johnson
41216,EastPoint,KY,Johnson
41219,Elna,KY,Johnson
41219,Flatgap,KY,Johnson
41219,GillemBranch,KY,Johnson
41219,Redbush,KY,Johnson
41219,Winifred,KY,Johnson
41222,Collista,KY,Johnson
41222,Hagerhill,KY,Johnson
41222,MendolaVillage,KY,Johnson
41224,Inez,KY,Martin
41224,Job,KY,Martin
41226,Keaton,KY,Johnson
41228,Leander,KY,Johnson
41230,Clifford,KY,Lawrence
41230,Fallsburg,KY,Lawrence
41230,Louisa,KY,Lawrence
41230,Richardson,KY,Lawrence
41231,Lovely,KY,Martin
41232,Lowmansville,KY,Lawrence
41234,Meally,KY,Johnson
41237,Offutt,KY,Johnson
41238,Manila,KY,Johnson
41238,OilSprings,KY,Johnson
41240,Nippa,KY,Johnson
41240,Paintsville,KY,Johnson
41240,Thealka,KY,Johnson
41250,Laura,KY,Martin
41250,Pilgrim,KY,Martin
41254,River,KY,Johnson
41255,Sitka,KY,Johnson
41256,BarnettsCreek,KY,Johnson
41256,Staffordsville,KY,Johnson
41257,Chandlerville,KY,Johnson
41257,Stambaugh,KY,Johnson
41258,Riceville,KY,Johnson
41258,SwampBranch,KY,Johnson
41260,Thelma,KY,Johnson
41261,Threeforks,KY,Martin
41262,Davisport,KY,Martin
41262,Milo,KY,Martin
41262,Tomahawk,KY,Martin
41263,TutorKey,KY,Johnson
41264,Ulysses,KY,Lawrence
41265,JohnsCreek,KY,Johnson
41265,VanLear,KY,Johnson
41266,Fuget,KY,Johnson
41266,Volga,KY,Johnson
41267,Hode,KY,Martin
41267,Warfield,KY,Martin
41268,WestVanLear,KY,Johnson
41269,Whitehouse,KY,Johnson
41271,Williamsport,KY,Johnson
41274,Wittensville,KY,Johnson
41301,Campton,KY,Wolfe
41301,Flat,KY,Wolfe
41301,Gillmore,KY,Wolfe
41301,Leeco,KY,Wolfe
41301,Mary,KY,Wolfe
41301,Maytown,KY,Wolfe
41301,Valeria,KY,Wolfe
41307,Athol,KY,Breathitt
41307,Jackson,KY,Breathitt
41310,Bays,KY,Breathitt
41311,Beattyville,KY,Lee
41311,OldLanding,KY,Lee
41311,Vada,KY,Lee
41311,Widecreek,KY,Lee
41311,YellowRock,KY,Lee
41313,Bethany,KY,Wolfe
41314,Booneville,KY,Owsley
41314,MorrisFork,KY,Owsley
41314,Pebworth,KY,Owsley
41314,SebastiansBranch,KY,Owsley
41314,Turkey,KY,Owsley
41315,Burkhart,KY,Wolfe
41317,Clayhole,KY,Breathitt
41323,Fillmore,KY,Lee
41328,GreenHall,KY,Owsley
41332,GrassyCreek,KY,Wolfe
41332,HazelGreen,KY,Wolfe
41332,Helechawa,KY,Wolfe
41333,Heidelberg,KY,Lee
41338,IslandCity,KY,Owsley
41339,Altro,KY,Breathitt
41339,Canoe,KY,Breathitt
41339,Decoy,KY,Breathitt
41339,Elkatawa,KY,Breathitt
41339,FrozenCreek,KY,Breathitt
41339,Guage,KY,Breathitt
41339,Guerrant,KY,Breathitt
41339,Haddix,KY,Breathitt
41339,Jackson,KY,Breathitt
41339,Little,KY,Breathitt
41339,Saldee,KY,Breathitt
41339,WolfCoal,KY,Breathitt
41339,Wolverine,KY,Breathitt
41340,Lambric,KY,Breathitt
41342,LeeCity,KY,Wolfe
41344,Lerose,KY,Owsley
41347,Lone,KY,Lee
41348,Hardshell,KY,Breathitt
41348,LostCreek,KY,Breathitt
41348,Ned,KY,Breathitt
41351,Mistletoe,KY,Owsley
41352,Mize,KY,Morgan
41357,Noctor,KY,Breathitt
41360,PineRidge,KY,Wolfe
41362,Primrose,KY,Lee
41363,Quicksand,KY,Breathitt
41364,Ricetown,KY,Owsley
41365,Rogers,KY,Wolfe
41366,Rousseau,KY,Breathitt
41367,Rowdy,KY,Perry
41368,SaintHelens,KY,Lee
41377,Talbert,KY,Breathitt
41378,Tallega,KY,Lee
41385,Sewell,KY,Breathitt
41385,Taulbee,KY,Breathitt
41385,Vancleve,KY,Breathitt
41386,Vincent,KY,Owsley
41390,Whick,KY,Breathitt
41396,Zachariah,KY,Lee
41397,Zoe,KY,Lee
41406,Buskirk,KY,Morgan
41408,CannelCity,KY,Morgan
41410,Cisco,KY,Magoffin
41413,Crockett,KY,Morgan
41417,Dingus,KY,Morgan
41419,Edna,KY,Magoffin
41421,Elkfork,KY,Morgan
41422,Elsie,KY,Magoffin
41425,Ezel,KY,Morgan
41426,Falcon,KY,Magoffin
41427,FlatFork,KY,Magoffin
41433,Gapville,KY,Magoffin
41443,Insko,KY,Morgan
41444,Ivyton,KY,Magoffin
41447,Lenox,KY,Morgan
41451,Malone,KY,Morgan
41452,Marshallville,KY,Magoffin
41456,Mima,KY,Morgan
41457,Moon,KY,Morgan
41459,Ophir,KY,Morgan
41464,Gypsy,KY,Magoffin
41464,Royalton,KY,Magoffin
41465,Bethanna,KY,Magoffin
41465,BurningFork,KY,Magoffin
41465,Carver,KY,Magoffin
41465,Conley,KY,Magoffin
41465,Cutuno,KY,Magoffin
41465,Cyrus,KY,Magoffin
41465,Duco,KY,Magoffin
41465,Ever,KY,Magoffin
41465,Foraker,KY,Magoffin
41465,Fredville,KY,Magoffin
41465,Fritz,KY,Magoffin
41465,Gifford,KY,Magoffin
41465,Hager,KY,Magoffin
41465,Harper,KY,Magoffin
41465,Hendricks,KY,Magoffin
41465,Lickburg,KY,Magoffin
41465,Logville,KY,Magoffin
41465,Maggard,KY,Magoffin
41465,Mashfork,KY,Magoffin
41465,Salyersville,KY,Magoffin
41465,Stella,KY,Magoffin
41465,Sublett,KY,Magoffin
41465,Swampton,KY,Magoffin
41465,Wonnie,KY,Magoffin
41466,Seitz,KY,Magoffin
41467,Silverhill,KY,Morgan
41472,BlairsMill,KY,Morgan
41472,Blaze,KY,Morgan
41472,Caney,KY,Morgan
41472,Cottle,KY,Morgan
41472,Elamton,KY,Morgan
41472,Index,KY,Morgan
41472,Matthew,KY,Morgan
41472,Relief,KY,Morgan
41472,StacyFork,KY,Morgan
41472,WestLiberty,KY,Morgan
41472,Yocum,KY,Morgan
41474,WhiteOak,KY,Morgan
41477,WestLiberty,KY,Morgan
41477,Wrigley,KY,Morgan
41501,BroadBottom,KY,Pike
41501,Gulnare,KY,Pike
41501,Mccombs,KY,Pike
41501,Meta,KY,Pike
41501,Pikeville,KY,Pike
41501,Piso,KY,Pike
41502,Pikeville,KY,Pike
41503,SouthWilliamson,KY,Pike
41512,Ashcamp,KY,Pike
41513,Belcher,KY,Pike
41513,FerrellsCreek,KY,Pike
41514,Belfry,KY,Pike
41514,Hatfield,KY,Pike
41517,Burdine,KY,Letcher
41518,Burnwell,KY,Pike
41519,Canada,KY,Pike
41520,Dorton,KY,Pike
41521,Draffin,KY,Pike
41522,BeaverBottom,KY,Pike
41522,BigBranch,KY,Pike
41522,Cedarville,KY,Pike
41522,Dunleary,KY,Pike
41522,ElkhornCity,KY,Pike
41522,Praise,KY,Pike
41522,RoadCreekJunction,KY,Pike
41522,Senterville,KY,Pike
41522,Venters,KY,Pike
41522,Wolfpit,KY,Pike
41524,Biggs,KY,Pike
41524,Fedscreek,KY,Pike
41526,FordsBranch,KY,Pike
41527,ForestHills,KY,Pike
41528,BoardTree,KY,Pike
41528,Freeburn,KY,Pike
41528,JohnsonBottom,KY,Pike
41529,Aflex,KY,Pike
41529,Goody,KY,Pike
41531,Hardy,KY,Pike
41534,Hellier,KY,Pike
41535,Huddy,KY,Pike
41536,Jamboree,KY,Pike
41537,Dunham,KY,Letcher
41537,EastJenkins,KY,Letcher
41537,Gaskill,KY,Letcher
41537,Jenkins,KY,Letcher
41537,Lionilli,KY,Letcher
41537,PayneGap,KY,Letcher
41537,PottersFork,KY,Letcher
41538,Jonancy,KY,Pike
41539,Kimper,KY,Pike
41540,LickCreek,KY,Pike
41542,Lookout,KY,Pike
41543,McAndrews,KY,Pike
41543,Mcandrews,KY,Pike
41544,McCarr,KY,Pike
41546,McVeigh,KY,Pike
41547,Majestic,KY,Pike
41548,Flanary,KY,Pike
41548,Mouthcard,KY,Pike
41548,Toonerville,KY,Pike
41549,Myra,KY,Pike
41550,Nelse,KY,Pike
41553,Coleman,KY,Pike
41553,PawPaw,KY,Pike
41553,Phelps,KY,Pike
41554,Phyllis,KY,Pike
41555,Pinsonfork,KY,Pike
41557,Fishtrap,KY,Pike
41557,Jonican,KY,Pike
41557,Raccoon,KY,Pike
41558,Hardy,KY,Pike
41558,Ransom,KY,Pike
41559,Regina,KY,Pike
41560,Douglas,KY,Pike
41560,RobinsonCreek,KY,Pike
41561,Rockhouse,KY,Pike
41562,GreasyCreek,KY,Pike
41562,Millard,KY,Pike
41562,Shelbiana,KY,Pike
41562,Sutton,KY,Pike
41563,ShelbyGap,KY,Pike
41564,Sidney,KY,Pike
41566,Steele,KY,Pike
41567,Stone,KY,Pike
41568,Argo,KY,Pike
41568,Stopover,KY,Pike
41568,Woodman,KY,Pike
41569,Belfry,KY,Pike
41569,Toler,KY,Pike
41570,TurkeyCreek,KY,Pike
41571,Varney,KY,Pike
41572,Etty,KY,Pike
41572,Hartley,KY,Pike
41572,Speight,KY,Pike
41572,Virgie,KY,Pike
41572,Wales,KY,Pike
41601,Allen,KY,Floyd
41601,NewAllen,KY,Floyd
41601,OldAllen,KY,Floyd
41602,Auxier,KY,Floyd
41603,Banner,KY,Floyd
41604,Beaver,KY,Floyd
41604,Ligon,KY,Floyd
41605,BetsyLayne,KY,Floyd
41605,Justell,KY,Floyd
41606,Bevinsville,KY,Floyd
41606,Halo,KY,Floyd
41607,BlueRiver,KY,Floyd
41612,Bypro,KY,Floyd
41614,Craynor,KY,Floyd
41615,Dana,KY,Floyd
41616,David,KY,Floyd
41619,Drift,KY,Floyd
41621,Dwale,KY,Floyd
41622,Eastern,KY,Floyd
41626,Endicott,KY,Floyd
41630,Garrett,KY,Floyd
41631,Grethel,KY,Floyd
41632,Gunlock,KY,Magoffin
41632,Waldo,KY,Magoffin
41635,Amba,KY,Floyd
41635,Galveston,KY,Floyd
41635,Harold,KY,Floyd
41635,Laynesville,KY,Floyd
41635,Osborn,KY,Floyd
41636,Buckingham,KY,Floyd
41636,HiHat,KY,Floyd
41636,Price,KY,Floyd
41637,Hippo,KY,Floyd
41637,Pyramid,KY,Floyd
41637,Pyrmid,KY,Floyd
41639,Honaker,KY,Floyd
41640,Elmrock,KY,Floyd
41640,Hueysville,KY,Floyd
41641,Hunter,KY,Floyd
41642,Ivel,KY,Floyd
41643,Lackey,KY,Floyd
41645,Langley,KY,Floyd
41645,Warco,KY,Floyd
41647,EastMcDowell,KY,Floyd
41647,McDowell,KY,Floyd
41647,Orkney,KY,Floyd
41649,Hite,KY,Floyd
41649,Martin,KY,Floyd
41649,Risner,KY,Floyd
41650,Melvin,KY,Floyd
41651,Minnie,KY,Floyd
41653,Bonanza,KY,Floyd
41653,Cliff,KY,Floyd
41653,Dock,KY,Floyd
41653,Emma,KY,Floyd
41653,Lancer,KY,Floyd
41653,Prestonsburg,KY,Floyd
41653,Sloan,KY,Floyd
41653,Watergap,KY,Floyd
41655,Printer,KY,Floyd
41659,Stanville,KY,Floyd
41660,Teaberry,KY,Floyd
41663,Tram,KY,Floyd
41666,Estill,KY,Floyd
41666,Wayland,KY,Floyd
41667,Weeksbury,KY,Floyd
41668,Prestonsburg,KY,Floyd
41668,WestPrestonsburg,KY,Floyd
41669,Wheelwright,KY,Floyd
41701,Darfork,KY,Perry
41701,Hazard,KY,Perry
41701,Walkertown,KY,Perry
41702,Hazard,KY,Perry
41710,Allock,KY,Perry
41712,Ary,KY,Perry
41713,Avawam,KY,Perry
41714,BearBranch,KY,Leslie
41719,BlueDiamond,KY,Perry
41719,Bonnyman,KY,Perry
41719,Butterfly,KY,Perry
41720,BrownsFork,KY,Perry
41721,Buckhorn,KY,Perry
41722,Ajax,KY,Perry
41722,Bulan,KY,Perry
41722,Duane,KY,Perry
41722,Heiner,KY,Perry
41722,Talcum,KY,Perry
41722,Tribbey,KY,Perry
41723,Busy,KY,Perry
41723,Toulouse,KY,Perry
41725,Carrie,KY,Knott
41727,Chavies,KY,Perry
41727,Engle,KY,Perry
41728,Cinda,KY,Leslie
41729,Combs,KY,Perry
41729,Dolan,KY,Perry
41729,Lennut,KY,Perry
41730,Confluence,KY,Leslie
41730,Shoal,KY,Leslie
41731,Cornettsville,KY,Perry
41731,Ulvah,KY,Perry
41731,Wentz,KY,Perry
41732,Cutshin,KY,Leslie
41733,Daisy,KY,Perry
41735,Delphia,KY,Perry
41736,Dice,KY,Perry
41739,Dwarf,KY,Perry
41740,Bearville,KY,Knott
41740,Emmalena,KY,Knott
41740,Tina,KY,Knott
41743,Fisty,KY,Knott
41745,GaysCreek,KY,Perry
41746,Happy,KY,Perry
41747,Hardburly,KY,Perry
41749,Dryhill,KY,Leslie
41749,Hyden,KY,Leslie
41749,Kaliopi,KY,Leslie
41751,Jeff,KY,Perry
41754,Krypton,KY,Perry
41754,Napfor,KY,Perry
41756,Leatherwood,KY,Perry
41759,Anco,KY,Knott
41759,Sassafras,KY,Knott
41760,Scuddy,KY,Perry
41762,Hyden,KY,Leslie
41762,Sizerock,KY,Leslie
41763,Slemp,KY,Perry
41764,Smilax,KY,Leslie
41766,Thousandsticks,KY,Leslie
41771,Typo,KY,Perry
41772,Vest,KY,Knott
41773,Kodak,KY,Perry
41773,Vicco,KY,Perry
41774,Farler,KY,Perry
41774,Fusonia,KY,Perry
41774,Viper,KY,Perry
41775,Wendover,KY,Leslie
41776,Frew,KY,Leslie
41776,Wooton,KY,Leslie
41777,BigFork,KY,Leslie
41777,BigRock,KY,Leslie
41777,Yeaddiss,KY,Leslie
41778,Yerkes,KY,Perry
41801,Amburgey,KY,Knott
41804,Blackey,KY,Letcher
41804,Carcassonne,KY,Letcher
41805,Brinkley,KY,Knott
41810,Cromona,KY,Letcher
41810,TolliverTown,KY,Letcher
41812,Deane,KY,Letcher
41815,Ermine,KY,Letcher
41817,Garner,KY,Knott
41817,Larkslane,KY,Knott
41819,Gilly,KY,Letcher
41819,Gordon,KY,Letcher
41821,Hallie,KY,Letcher
41821,Skyline,KY,Letcher
41822,Hindman,KY,Knott
41823,Hollybush,KY,Knott
41824,Isom,KY,Letcher
41825,Jackhorn,KY,Letcher
41826,Jeremiah,KY,Letcher
41828,Kite,KY,Knott
41828,Puncheon,KY,Knott
41829,Kona,KY,Letcher
41831,Leburn,KY,Knott
41831,SoftShell,KY,Knott
41832,CarbonGlow,KY,Letcher
41832,Letcher,KY,Letcher
41833,Linefork,KY,Letcher
41834,Littcarr,KY,Knott
41835,McRoberts,KY,Letcher
41836,Bath,KY,Knott
41836,Mallie,KY,Knott
41837,Mayking,KY,Letcher
41838,Millstone,KY,Letcher
41839,Mousie,KY,Knott
41840,Fleming,KY,Letcher
41840,Hall,KY,Letcher
41840,Neon,KY,Letcher
41843,Omaha,KY,Knott
41843,PineTop,KY,Knott
41844,PippaPasses,KY,Knott
41845,Premium,KY,Letcher
41847,CarrCreek,KY,Knott
41847,Redfox,KY,Knott
41848,Roxana,KY,Letcher
41849,Seco,KY,Letcher
41855,Thornton,KY,Letcher
41858,Crown,KY,Letcher
41858,Democrat,KY,Letcher
41858,Dongola,KY,Letcher
41858,KingsCreek,KY,Letcher
41858,Oscaloosa,KY,Letcher
41858,Van,KY,Letcher
41858,Whitesburg,KY,Letcher
41859,Dema,KY,Knott
41861,PippaPasses,KY,Knott
41861,Raven,KY,Knott
41862,DryCreek,KY,Knott
41862,Topmost,KY,Knott
42001,Avondale,KY,Mccracken
42001,BarkleyRegionalAirport,KY,Mccracken
42001,Fremont,KY,Mccracken
42001,Hendron,KY,Mccracken
42001,KentuckyOaksMall,KY,Mccracken
42001,LoneOak,KY,Mccracken
42001,Massac,KY,Mccracken
42001,Oakdale,KY,Mccracken
42001,Paducah,KY,Mccracken
42001,PaducahMall,KY,Mccracken
42001,Reidland,KY,Mccracken
42001,SaintJohns,KY,Mccracken
42002,Paducah,KY,Mccracken
42003,Paducah,KY,Mccracken
42020,Almo,KY,Calloway
42020,AlmoHeights,KY,Calloway
42021,Arlington,KY,Carlisle
42022,Bandana,KY,Ballard
42023,Bardwell,KY,Carlisle
42024,Barlow,KY,Ballard
42025,Benton,KY,Marshall
42025,Draffenville,KY,Marshall
42025,Fairdealing,KY,Marshall
42025,Palma,KY,Marshall
42025,Sharpe,KY,Marshall
42026,Blandville,KY,Ballard
42027,Boaz,KY,Graves
42028,Burna,KY,Livingston
42029,CalvertCity,KY,Marshall
42031,Clinton,KY,Hickman
42031,Croley,KY,Hickman
42031,Fulgham,KY,Hickman
42031,Moscow,KY,Hickman
42031,NewCypress,KY,Hickman
42031,Oakton,KY,Hickman
42032,Columbus,KY,Hickman
42033,Crayne,KY,Crittenden
42035,Cunningham,KY,Carlisle
42036,Dexter,KY,Calloway
42037,Dycusburg,KY,Crittenden
42038,Confederate,KY,Lyon
42038,Eddyville,KY,Lyon
42038,Lamasco,KY,Lyon
42038,Overlook,KY,Lyon
42039,FancyFarm,KY,Graves
42040,BellCity,KY,Graves
42040,Farmington,KY,Graves
42041,Cayce,KY,Fulton
42041,Crutchfield,KY,Fulton
42041,Fulton,KY,Fulton
42044,Gilbertsville,KY,Marshall
42045,GrandRivers,KY,Livingston
42045,Iuka,KY,Livingston
42045,LakeCity,KY,Livingston
42046,Hamlin,KY,Calloway
42047,Hampton,KY,Livingston
42047,Joy,KY,Livingston
42048,Aurora,KY,Marshall
42048,Hardin,KY,Marshall
42049,Hazel,KY,Calloway
42050,Hickman,KY,Fulton
42051,Dogwood,KY,Graves
42051,Folsomdale,KY,Graves
42051,Hickory,KY,Graves
42051,Kaler,KY,Graves
42051,Pottsville,KY,Graves
42051,Viola,KY,Graves
42051,WestViola,KY,Graves
42053,Kevil,KY,Ballard
42054,Kirksey,KY,Calloway
42055,Kuttawa,KY,Lyon
42055,Suwanee,KY,Lyon
42056,Gage,KY,Ballard
42056,LaCenter,KY,Ballard
42058,Ledbetter,KY,Livingston
42059,Lola,KY,Livingston
42060,Lovelaceville,KY,Ballard
42061,Lowes,KY,Graves
42063,Lynnville,KY,Graves
42064,Frances,KY,Crittenden
42064,Levias,KY,Crittenden
42064,Marion,KY,Crittenden
42064,Mattoon,KY,Crittenden
42064,Mexico,KY,Crittenden
42064,NewSalem,KY,Crittenden
42064,Repton,KY,Crittenden
42064,Sheridan,KY,Crittenden
42064,Tribune,KY,Crittenden
42064,WinslowPark,KY,Crittenden
42066,Mayfield,KY,Graves
42069,Melber,KY,Mccracken
42070,Milburn,KY,Carlisle
42071,Coldwater,KY,Calloway
42071,CollegeCampus,KY,Calloway
42071,Faxon,KY,Calloway
42071,LynnGrove,KY,Calloway
42071,Murray,KY,Calloway
42071,Shiloh,KY,Calloway
42071,University,KY,Calloway
42071,VanCleve,KY,Calloway
42076,NewConcord,KY,Calloway
42078,Salem,KY,Livingston
42079,Sedalia,KY,Graves
42081,Carrsville,KY,Livingston
42081,Smithland,KY,Livingston
42082,Symsonia,KY,Graves
42083,Tiline,KY,Livingston
42084,Tolu,KY,Crittenden
42085,WaterValley,KY,Graves
42086,Camelia,KY,Mccracken
42086,Grahamville,KY,Mccracken
42086,Heath,KY,Mccracken
42086,HighPoint,KY,Mccracken
42086,WestPaducah,KY,Mccracken
42087,Wickliffe,KY,Ballard
42088,Wingo,KY,Graves
42101,BowlingGreen,KY,Warren
42101,BowlingGrn,KY,Warren
42101,CollegeHeights,KY,Warren
42101,PlumSprings,KY,Warren
42102,BowlingGreen,KY,Warren
42103,BowlingGreen,KY,Warren
42104,BowlingGreen,KY,Warren
42120,Adolphus,KY,Allen
42122,AllenSprings,KY,Warren
42122,Alvaton,KY,Warren
42123,Austin,KY,Barren
42123,Cooktown,KY,Barren
42124,Beaumont,KY,Metcalfe
42127,CaveCity,KY,Barren
42128,Drake,KY,Warren
42129,Beechville,KY,Metcalfe
42129,CaveRidge,KY,Metcalfe
42129,CedarFlat,KY,Metcalfe
42129,Cork,KY,Metcalfe
42129,Edmonton,KY,Metcalfe
42129,Goodluck,KY,Metcalfe
42129,Randolph,KY,Metcalfe
42129,Subtle,KY,Metcalfe
42129,SulphurWell,KY,Metcalfe
42130,88,KY,Barren
42130,EightyEight,KY,Barren
42131,Dryfork,KY,Barren
42131,Etoile,KY,Barren
42133,FountainRun,KY,Monroe
42134,Franklin,KY,Simpson
42135,Franklin,KY,Simpson
42140,Bugtussle,KY,Monroe
42140,Fleet,KY,Monroe
42140,Freetown,KY,Monroe
42140,Gamaliel,KY,Monroe
42141,DryFork,KY,Barren
42141,Glasgow,KY,Barren
42141,Haywood,KY,Barren
42141,Lamb,KY,Barren
42141,TempleHill,KY,Barren
42142,Glasgow,KY,Barren
42150,Halfway,KY,Allen
42151,Hestand,KY,Monroe
42152,Hiseville,KY,Barren
42153,Holland,KY,Allen
42154,KnobLick,KY,Metcalfe
42156,Lucas,KY,Barren
42157,MountHerman,KY,Monroe
42157,MountHermon,KY,Monroe
42159,Oakland,KY,Warren
42160,CedarSpring,KY,Barren
42160,ParkCity,KY,Barren
42163,RockyHill,KY,Edmonson
42164,Gainesville,KY,Allen
42164,Halifax,KY,Allen
42164,Scottsville,KY,Allen
42164,Trammel,KY,Allen
42166,EightyEight,KY,Metcalfe
42166,SummerShade,KY,Metcalfe
42166,WillowShade,KY,Metcalfe
42167,Boles,KY,Monroe
42167,Flippin,KY,Monroe
42167,Forkton,KY,Monroe
42167,GumTree,KY,Monroe
42167,MudLick,KY,Monroe
42167,TVille,KY,Monroe
42167,Tompkinsville,KY,Monroe
42170,Woodburn,KY,Warren
42171,SmithsGrove,KY,Warren
42201,Aberdeen,KY,Butler
42202,Adairville,KY,Logan
42203,Allegre,KY,Todd
42204,Allensville,KY,Todd
42204,Keysburg,KY,Todd
42206,Auburn,KY,Logan
42206,Richelieu,KY,Logan
42207,BeeSpring,KY,Edmonson
42209,Brooklyn,KY,Butler
42210,Brownsville,KY,Edmonson
42211,BlueSpring,KY,Trigg
42211,BlueWaterEstates,KY,Trigg
42211,Cadiz,KY,Trigg
42211,Canton,KY,Trigg
42211,Donaldson,KY,Trigg
42211,GoldenPond,KY,Trigg
42211,Ironton,KY,Trigg
42211,Linton,KY,Trigg
42211,Maggie,KY,Trigg
42211,MapleGrove,KY,Trigg
42211,Montgomery,KY,Trigg
42211,RoaringSpring,KY,Trigg
42211,Rockcastle,KY,Trigg
42211,TriggFurnace,KY,Trigg
42214,Center,KY,Metcalfe
42215,Cerulean,KY,Trigg
42216,Clifty,KY,Todd
42217,Crofton,KY,Christian
42219,Dunbar,KY,Butler
42220,Elkton,KY,Todd
42221,Fairview,KY,Christian
42223,FortCampbell,KY,Christian
42232,Gracey,KY,Christian
42234,Guthrie,KY,Todd
42234,Hadensville,KY,Todd
42234,Herman,KY,Todd
42234,TinyTown,KY,Todd
42235,Hadley,KY,Warren
42236,Herndon,KY,Christian
42240,Hopkinsville,KY,Christian
42241,Hopkinsville,KY,Christian
42250,Huff,KY,Edmonson
42251,Huntsville,KY,Butler
42251,Morgantown,KY,Butler
42252,Jetson,KY,Butler
42252,Monford,KY,Butler
42254,LaFayette,KY,Christian
42256,Lewisburg,KY,Logan
42257,Lindseyville,KY,Edmonson
42259,MammothCave,KY,Edmonson
42259,MammothCaveNationalPark,KY,Edmonson
42259,Ollie,KY,Edmonson
42261,Logansport,KY,Butler
42261,Morgantown,KY,Butler
42262,OakGrove,KY,Christian
42265,Olmstead,KY,Logan
42266,Pembroke,KY,Christian
42266,StElmo,KY,Christian
42267,Provo,KY,Butler
42268,Quality,KY,Butler
42270,Richardsville,KY,Warren
42273,Rochester,KY,Butler
42274,BlueLevel,KY,Warren
42274,Browning,KY,Warren
42274,Cavehill,KY,Warren
42274,Petros,KY,Warren
42274,Rockfield,KY,Warren
42275,BigReady,KY,Edmonson
42275,Region,KY,Edmonson
42275,Roundhill,KY,Edmonson
42275,Threlkel,KY,Edmonson
42276,CaveSpring,KY,Logan
42276,Cooperstown,KY,Logan
42276,Daysville,KY,Logan
42276,Gordonsville,KY,Logan
42276,Oakville,KY,Logan
42276,Russellville,KY,Logan
42280,SharonGrove,KY,Todd
42283,SouthUnion,KY,Logan
42284,Sunfish,KY,Edmonson
42285,Kyrock,KY,Edmonson
42285,Sweeden,KY,Edmonson
42286,Trenton,KY,Todd
42287,WelchsCreek,KY,Butler
42288,Woodbury,KY,Butler
42301,BirkCity,KY,Daviess
42301,BrownwoodManor,KY,Daviess
42301,Dermont,KY,Daviess
42301,Ensor,KY,Daviess
42301,Greenbriar,KY,Daviess
42301,Moseleyville,KY,Daviess
42301,Newman,KY,Daviess
42301,OakRidge,KY,Daviess
42301,Owensboro,KY,Daviess
42302,Owensboro,KY,Daviess
42303,Owensboro,KY,Daviess
42304,Owensboro,KY,Daviess
42320,BeaverDam,KY,Ohio
42320,CoolSprings,KY,Ohio
42320,Echols,KY,Ohio
42320,Horton,KY,Ohio
42320,Nineteen,KY,Ohio
42320,Prentiss,KY,Ohio
42320,Render,KY,Ohio
42320,Schultztown,KY,Ohio
42320,TaylorMines,KY,Ohio
42321,BeechCreek,KY,Muhlenberg
42322,BeechGrove,KY,Mclean
42323,Beechmont,KY,Muhlenberg
42324,Belton,KY,Muhlenberg
42325,Bremen,KY,Muhlenberg
42326,Browder,KY,Muhlenberg
42327,Calhoun,KY,Mclean
42328,Centertown,KY,Ohio
42330,CentralCity,KY,Muhlenberg
42330,CentralCty,KY,Muhlenberg
42332,Cleaton,KY,Muhlenberg
42333,Cromwell,KY,Ohio
42334,Curdsville,KY,Daviess
42337,Drakesboro,KY,Muhlenberg
42338,Dundee,KY,Ohio
42339,Dunmor,KY,Muhlenberg
42343,Fordsville,KY,Ohio
42343,Trisler,KY,Ohio
42343,Yeaman,KY,Ohio
42344,Graham,KY,Muhlenberg
42345,Greenville,KY,Muhlenberg
42347,Hartford,KY,Ohio
42348,ArringtonCorner,KY,Hancock
42348,Hawesville,KY,Hancock
42349,HorseBranch,KY,Ohio
42350,Island,KY,Mclean
42351,Lewisport,KY,Hancock
42352,Livermore,KY,Mclean
42352,Nuckols,KY,Mclean
42354,McHenry,KY,Ohio
42354,Mchenry,KY,Ohio
42355,Maceo,KY,Daviess
42356,MapleMount,KY,Daviess
42358,Narrows,KY,Ohio
42361,Olaton,KY,Ohio
42364,Pellville,KY,Hancock
42365,Penrod,KY,Muhlenberg
42366,Philpot,KY,Daviess
42367,Powderly,KY,Muhlenberg
42368,ReynoldsStation,KY,Ohio
42369,Rockport,KY,Ohio
42370,Rosine,KY,Ohio
42371,Rumsey,KY,Mclean
42372,Sacramento,KY,Mclean
42373,SaintJoseph,KY,Daviess
42374,SCarrollton,KY,Muhlenberg
42374,SouthCarrollton,KY,Muhlenberg
42375,Stanley,KY,Daviess
42376,Bra#1,KY,Daviess
42376,Utica,KY,Daviess
42377,WestLouisville,KY,Daviess
42378,Whitesville,KY,Daviess
42402,Baskett,KY,Henderson
42403,Blackford,KY,Webster
42404,Clay,KY,Webster
42406,Corydon,KY,Henderson
42406,Geneva,KY,Henderson
42408,Beulah,KY,Hopkins
42408,Carbondale,KY,Hopkins
42408,Charleston,KY,Hopkins
42408,DawsonSprings,KY,Hopkins
42409,Dixon,KY,Webster
42410,Earlington,KY,Hopkins
42411,Fredonia,KY,Caldwell
42413,Hanson,KY,Hopkins
42420,Henderson,KY,Henderson
42431,Madisonville,KY,Hopkins
42436,Manitou,KY,Hopkins
42437,Boxville,KY,Union
42437,GroveCenter,KY,Union
42437,Henshaw,KY,Union
42437,Morganfield,KY,Union
42437,Morganfld,KY,Union
42437,Pride,KY,Union
42437,SpringGrove,KY,Union
42440,MortonsGap,KY,Hopkins
42441,Nebo,KY,Hopkins
42442,Nortonville,KY,Hopkins
42444,Poole,KY,Webster
42445,Princeton,KY,Caldwell
42450,Providence,KY,Webster
42451,Reed,KY,Henderson
42452,Robards,KY,Henderson
42453,SaintCharles,KY,Hopkins
42455,Sebree,KY,Webster
42456,Slaughters,KY,Webster
42457,SmithMills,KY,Henderson
42458,Spottsville,KY,Henderson
42459,Sturgis,KY,Union
42460,Sullivan,KY,Union
42461,Uniontown,KY,Union
42462,Waverly,KY,Union
42463,Wheatcroft,KY,Webster
42464,WhitePlains,KY,Hopkins